LEMUR-1                 
1 40044U 14033AL  26157.17768813  .00003039  00000+0  35312-3 0  9996
2 40044  97.7870 307.2289 0049662 113.7715 246.8719 14.85202000643838
LEMUR-2-GREENBERG       
1 42837U 17042N   26158.21896595  .00017738  00000+0  59289-3 0  9996
2 42837  97.3821 338.8925 0009469  48.2809 311.9241 15.31020951486863
LEMUR-2-ANDIS           
1 42838U 17042P   26157.74910751  .00027382  00000+0  82057-3 0  9990
2 42838  97.3683 338.5736 0009057  49.2245 310.9782 15.34429480486856
LEMUR-2-MONSON          
1 42839U 17042Q   26157.74776541  .00018878  00000+0  69789-3 0  9995
2 42839  97.4081 338.4115 0007211  41.8321 318.3469 15.27735616486579
LEMUR-2-FURIAUS         
1 42840U 17042R   26158.00946105  .00019501  00000+0  67416-3 0  9991
2 42840  97.3774 336.6626 0008566 100.4880 259.7326 15.29916842486655
LEMUR-2-PETERG          
1 42841U 17042S   26158.24878135  .00024832  00000+0  76758-3 0  9997
2 42841  97.3996 343.2667 0004036  33.3323 326.8173 15.33497631486915
LEMUR-2-DEMBITZ         
1 42842U 17042T   26158.22591996  .00016353  00000+0  56476-3 0  9997
2 42842  97.3828 339.8931 0007552  60.8935 299.3061 15.29994018486821
LEMUR-2-ZACHARY         
1 42845U 17042W   26158.24701155  .00046856  00000+0  85142-3 0  9995
2 42845  97.3614 349.6783 0003591  67.4057 292.7574 15.49406186487663
LEMUR-2-AMANDA-SVANTE   
1 48269U 21034B   26157.20282005  .00045111  00000+0  13832-2 0  9999
2 48269  97.5756 235.2043 0000962 256.4279 103.6856 15.33631703279370
LEMUR-2-SPECIAL-K       
1 48273U 21034F   26157.20130287  .00181204  00000+0  20818-2 0  9994
2 48273  97.5648 243.2905 0002900 237.9387 122.1588 15.61432707279977
LEMUR-2-EMBRIONOVIS     
1 56970U 23084AQ  26157.65780295  .00017097  00000+0  46939-3 0  9994
2 56970  97.6284 301.4560 0008485   0.8273 359.2983 15.37286055166069
LEMUR-2-DEVERILL-M-T    
1 57391U 23100F   26157.83548852  .00030563  00000+0  78525-3 0  9991
2 57391  99.4478 193.6094 0007230  82.0922 278.1137 15.39239120159655
LEMUR-2-BASS            
1 58259U 23174D   26157.96330530  .00020309  00000+0  46562-3 0  9995
2 58259  97.3843 242.5357 0006943 195.7890 164.3142 15.42755805143780
LEMUR-2-JK0903EM1407    
1 58336U 23174CJ  26157.50127039  .00033010  00000+0  56572-3 0  9994
2 58336  97.3908 247.6769 0005904 148.9054 211.2548 15.51130968144071
LEMUR-2-MJR092620       
1 58340U 23174CN  26157.98827764  .00022089  00000+0  47735-3 0  9998
2 58340  97.3974 247.8340 0006967 147.4073 212.7607 15.44499969144074
LEMUR-2-NIMBUS2000      
1 58899U 24022A   26157.55129632  .00022056  00000+0  55945-3 0  9998
2 58899  97.4120   7.4213 0009866 148.8808 211.3024 15.39653520130632
LEMUR-2-VALHALLA        
1 58900U 24022B   26157.54533960  .00021046  00000+0  53926-3 0  9998
2 58900  97.4118   7.4115 0010462 145.2046 214.9886 15.39347702130639
LEMUR-2-OBA-NI-JESU     
1 58902U 24022D   26157.58060698  .01047681  61014-3  14770-2 0  9990
2 58902  97.3743  21.9399 0004708 187.2405 172.8809 16.05868200131622
LEMUR-2-CAEL            
1 58903U 24022E   26157.82387815  .00021938  00000+0  53896-3 0  9994
2 58903  97.4102   8.6111 0009098 128.2415 231.9652 15.40635314130741
LEMUR-2-JOHNNYTRUONG    
1 59146U 24043BA  26158.14407166  .00043727  00000+0  54625-3 0  9996
2 59146  97.5377 309.2317 0004453 207.4289 152.6732 15.59721637126470
LEMUR-2-TOMATOKECHUP    
1 60471U 24149D   26157.94400669  .00012480  00000+0  36024-3 0  9999
2 60471  97.3793 239.9666 0000446 205.8269 154.2953 15.35818906100595
LEMUR-2-STELLA          
1 60533U 24149BT  26157.49095815  .00015863  00000+0  93724-3 0  9999
2 60533  97.6731 239.9014 0002012  99.4545 260.6912 15.11579016 98886
LEMUR-2-MARHISYAM       
1 60536U 24149BW  26157.20254433  .00015006  00000+0  90038-3 0  9998
2 60536  97.6874 240.0497 0003094 137.6306 222.5163 15.11031638 98828
LEMUR-2-AHMED-ASRAR     
1 60576U 24149DN  26157.97490183  .00014864  00000+0  85685-3 0  9993
2 60576  97.6999 242.8793 0002614  65.3740 294.7762 15.12483472 99022
LEMUR-2-LLOYD           
1 60577U 24149DP  26157.96399026  .00012580  00000+0  79788-3 0  9997
2 60577  97.6742 239.0894 0004354 166.1615 193.9733 15.09043539 98853
LEMUR-2-SQUIRRELCOMM    
1 60578U 24149DQ  26157.96429978  .00007613  00000+0  51169-3 0  9992
2 60578  97.6711 238.9087 0006856  89.8342 270.3671 15.07037972 98863
LEMUR-2-SIERRINI        
1 60579U 24149DR  26157.95235337  .00013151  00000+0  79616-3 0  9997
2 60579  97.6841 240.5013 0004917 194.6657 165.4431 15.10732713 98919
LEMUR-2-WILSON          
1 62694U 25009CP  26157.18626202  .00002584  00000+0  24074-3 0  9999
2 62694  97.7028 235.8446 0004826  80.8883 279.2883 14.95122096 75717
LEMUR-2-STAR-FOX        
1 62696U 25009CR  26157.50327665  .00011065  00000+0  84057-3 0  9999
2 62696  97.6941 239.1902 0002700 141.1756 218.9664 15.02340714 75956
